CLOUDSAT                
1 29107U 06016A   23059.91095856  .00000877  00000+0  17812-3 0  9997
2 29107  98.3632  27.9993 0002153 188.3916 171.7250 14.63652243896538
CALIPSO                 
1 29108U 06016B   23059.91071982  .00002961  00000+0  57923-3 0  9995
2 29108  98.3618  27.4880 0001523  81.0528 279.0846 14.63621880896526
EWS-G1 (GOES 13)        
1 29155U 06018A   23059.76081022  .00000033  00000+0  00000+0 0  9996
2 29155   1.2480  92.3725 0003710 178.4686 222.5539  1.00273814 31309
EUTELSAT 113 WEST A     
1 29162U 06020A   23059.58273250 -.00000043  00000+0  00000+0 0  9995
2 29162   0.0618 289.6144 0003051  60.0819 265.1972  1.00271223 61393
RESURS-DK 1             
1 29228U 06021A   23059.81056199  .00004178  00000+0  30733-3 0  9998
2 29228  69.9359 195.3273 0004270 343.8267  16.2758 15.04170544920913
GALAXY 16 (G-16)        
1 29236U 06023A   23059.87234135 -.00000132  00000+0  00000+0 0  9990
2 29236   0.0558 270.9062 0002888  72.0247  30.4959  1.00272481 60894
GENESIS 1               
1 29252U 06029A   23060.11294516  .00010661  00000+0  43425-3 0  9991
2 29252  64.5223 306.5449 0039406 224.0200 135.7787 15.24195330918107
ARIRANG-2 (KOMPSAT-2)   
1 29268U 06031A   23060.22737256  .00000810  00000+0  16675-3 0  9998
2 29268  97.9211 283.9536 0013669 287.4461  72.5231 14.62986685885434
EUTELSAT HOTBIRD 13B    
1 29270U 06032A   23059.82295874  .00000081  00000+0  00000+0 0  9992
2 29270   0.0610 341.3914 0005695   0.7387 125.4573  1.00272138 35238
JCSAT-3A                
1 29272U 06033A   23059.84584326 -.00000351  00000+0  00000+0 0  9991
2 29272   0.0169 170.6010 0001985 189.3400 230.9283  1.00272215 35660
SYRACUSE 3B             
1 29273U 06033B   23059.81929781 -.00000050  00000+0  00000+0 0  9993
2 29273   0.0144 132.4533 0004473 209.3294 106.2899  1.00272185 60627
KOREASAT 5 (MUGUNGWHA 5)
1 29349U 06034A   23060.05800240 -.00000364  00000+0  00000+0 0  9992
2 29349   0.0187 199.6716 0001342 129.3556 323.4773  1.00270220 60554
HINODE (SOLAR-B)        
1 29479U 06041A   23060.05088564  .00001220  00000+0  23511-3 0  9998
2 29479  98.1131  76.8651 0019369 134.6598 225.6188 14.65185297878332
NAVSTAR 58 (USA 190)    
1 29486U 06042A   23059.40987096  .00000018  00000+0  00000+0 0  9990
2 29486  54.6948 199.1053 0106702  27.8203 338.1927  2.00564557120238
DIRECTV 9S              
1 29494U 06043A   23059.87190553 -.00000118  00000+0  00000+0 0  9997
2 29494   0.0196 111.9669 0003106 227.4866  31.6147  1.00272055 39303
OPTUS D1                
1 29495U 06043B   23059.92394293 -.00000117  00000+0  00000+0 0  9990
2 29495   0.0506 290.0875 0003494  54.0131 306.9522  1.00269575 60049
SHIJIAN-6 02A (SJ-6 02A)
1 29505U 06046A   23060.01698679  .00009396  00000+0  80693-3 0  9999
2 29505  97.7616  84.3288 0004191  12.5636 347.5727 14.97665244891078
SHIJIAN-6 02B (SJ-6 02B)
1 29506U 06046B   23060.14914026  .00003294  00000+0  30917-3 0  9996
2 29506  97.7814  84.2978 0003653  93.3013 266.8640 14.94658620890479
XM-4 (BLUES)            
1 29520U 06049A   23059.95549657 -.00000252  00000+0  00000+0 0  9994
2 29520   0.1161 292.7440 0001811  17.2513 151.0164  1.00488359 59928
DMSP 5D-3 F17 (USA 191) 
1 29522U 06050A   23060.19858676  .00000346  00000+0  20404-3 0  9997
2 29522  98.7600  75.3290 0008862 247.6009 112.4226 14.14193776842195
BADR-4                  
1 29526U 06051A   23059.61036375  .00000139  00000+0  00000+0 0  9997
2 29526   0.0540 318.2623 0006306  16.2366  69.3614  1.00276488 59817
NAVSTAR 59 (USA 192)    
1 29601U 06052A   23059.35317995  .00000050  00000+0  00000+0 0  9995
2 29601  55.3648 261.8372 0087070  76.5509 284.4471  2.00566186119245
WILDBLUE-1              
1 29643U 06054A   23059.58308115 -.00000055  00000+0  00000+0 0  9998
2 29643   0.0131 214.2442 0001848 122.7178 279.8708  1.00271923 59469
AMC-18                  
1 29644U 06054B   23060.09068919 -.00000222  00000+0  00000+0 0  9998
2 29644   0.0608 292.1987 0002610  51.7849 124.2692  1.00272344 59454
LAPAN-TUBSAT            
1 29709U 07001A   23060.21637857  .00002176  00000+0  27499-3 0  9994
2 29709  98.0053  27.4790 0013842 136.9181 223.3118 14.82853168872553
CARTOSAT-2 (IRS-P7)     
1 29710U 07001B   23060.07410578  .00047394  00000+0  86128-3 0  9994
2 29710  97.8766 187.6078 0120091 230.7855 128.2681 15.41713774875585
THEMIS A                
1 30580U 07004A   23059.65107639 -.00000590  00000+0  74787-1 0  9991
2 30580  11.9528 316.3517 8352442 220.6642 354.7959  0.87832941 55374
OE (NEXTSAT)            
1 30774U 07006C   23059.83290154  .00132985  00000+0  68394-3 0  9995
2 30774  45.9910 359.0482 0007818 136.1752 223.9788 15.80093622893949
SKYNET 5A               
1 30794U 07007B   23059.88035722 -.00000278  00000+0  00000+0 0  9997
2 30794   2.2151  87.7876 0003404 257.0039 225.7303  1.00270351 58628
THEMIS D                
1 30797U 07004D   23058.74795139 -.00000563  00000+0  00000+0 0  9993
2 30797   8.0727 303.7984 8303520 236.4063  73.3633  0.87772174 30484
THEMIS E                
1 30798U 07004E   23058.73465278 -.00000533  00000+0  00000+0 0  9998
2 30798   9.2425 321.2444 8302792 220.7915  70.9908  0.87832461    11
ANIK F3                 
1 31102U 07009A   23059.72498549 -.00000006  00000+0  00000+0 0  9995
2 31102   0.0168 133.4603 0002385 199.3991 327.6665  1.00271234 34487
HAIYANG-1B              
1 31113U 07010A   23059.93075784  .00000202  00000+0  93478-4 0  9997
2 31113  98.3044  78.6591 0014037 167.9519 192.2003 14.30385868828436
SAUDISAT 3              
1 31118U 07012B   23059.82292170  .00000750  00000+0  13437-3 0  9996
2 31118  98.0016   6.1307 0016496  98.7022 261.6053 14.69537075850802
SAUDICOMSAT 7           
1 31119U 07012C   23059.82609981  .00001742  00000+0  34487-3 0  9999
2 31119  98.2168   8.7491 0059726  10.0527 350.1854 14.62479643846172
SAUDICOMSAT 6           
1 31121U 07012E   23059.79307629  .00001262  00000+0  26692-3 0  9998
2 31121  98.2550   3.9359 0077045 114.9010 246.0222 14.59218514844326
SAUDICOMSAT 5           
1 31124U 07012H   23059.79372206  .00001821  00000+0  34889-3 0  9992
2 31124  98.1866  10.0680 0049940 313.7545  45.9529 14.64249791847167
SAUDICOMSAT 3           
1 31125U 07012J   23059.80296314  .00001878  00000+0  34654-3 0  9992
2 31125  98.1526  11.2721 0041078 255.6178 104.0464 14.66140152848068
SAUDICOMSAT 4           
1 31127U 07012L   23059.81855925  .00001613  00000+0  32829-3 0  9993
2 31127  98.2388   7.1928 0068608  59.7755 301.0215 14.60968239845307
AGILE                   
1 31135U 07013A   23058.36690273  .00038788  00000+0  73534-3 0  9996
2 31135   2.4690  12.9164 0008356 176.4208 183.5906 15.45886851883731
AIM                     
1 31304U 07015A   23059.77928537  .00027753  00000+0  11286-2 0  9994
2 31304  97.8642 354.6084 0003223 162.7544 197.3802 15.24501421870132
ASTRA 1L                
1 31306U 07016A   23059.82417904  .00000114  00000+0  00000+0 0  9995
2 31306   0.1039 295.3322 0005644  15.9432 162.9474  1.00271142 32935
GALAXY 17 (G-17)        
1 31307U 07016B   23059.87391032 -.00000179  00000+0  00000+0 0  9996
2 31307   0.0162 167.6329 0001884 161.5645  52.8127  1.00269927 57720
YAOGAN 2                
1 31490U 07019A   23060.03809228  .00001718  00000+0  24537-3 0  9997
2 31490  98.2797 223.5801 0020072 184.1639 175.9406 14.77944342849463
GLOBALSTAR M065         
1 31571U 07020A   23059.95253421 -.00000052  00000+0  29174-3 0  9999
2 31571  51.9888 260.5705 0001573  94.2807  49.9122 12.62268035727445
GLOBALSTAR M069         
1 31573U 07020C   23059.88950295 -.00000070  00000+0  18775-3 0  9991
2 31573  51.9932 217.1248 0001686  98.0199  59.2194 12.62270832728552
GLOBALSTAR M072         
1 31574U 07020D   23059.86795566 -.00000089  00000+0  84173-4 0  9994
2 31574  52.0097 312.7044 0000777  31.2542  47.4985 12.62268687726981
GLOBALSTAR M071         
1 31576U 07020F   23059.74599303 -.00000068  00000+0  20133-3 0  9996
2 31576  52.0046 222.3569 0002150  86.8149  17.1429 12.62269733389728
COSMO-SKYMED 1          
1 31598U 07023A   23060.14455535  .00001418  00000+0  18466-3 0  9992
2 31598  97.8910 245.1728 0001344  84.6202 275.5156 14.82163876850982
TERRASAR-X              
1 31698U 07026A   23060.06924483  .00002240  00000+0  10979-3 0  9995
2 31698  97.4464  68.9897 0002032 112.8762 331.6662 15.19160416871078
GENESIS 2               
1 31789U 07028A   23060.18296923  .00014007  00000+0  57172-3 0  9992
2 31789  64.4970 350.1818 0059337 276.1938  83.2429 15.23033340865000
COSMOS 2428             
1 31792U 07029A   23060.11590726 -.00000217  00000+0 -91521-4 0  9995
2 31792  70.9437   1.5624 0009065  14.9089 345.2297 14.12569597808178
ZHONGXING-6B            
1 31800U 07031A   23059.89980160 -.00000368  00000+0  00000+0 0  9999
2 31800   0.0091 166.3512 0004026 166.9605 264.5408  1.00273019 57355
DIRECTV 10              
1 31862U 07032A   23059.87155687 -.00000108  00000+0  00000+0 0  9996
2 31862   0.0070 272.7382 0000158  61.2300  35.3968  1.00271162 33512
SPACEWAY 3              
1 32018U 07036A   23059.87303867 -.00000157  00000+0  00000+0 0  9993
2 32018   0.8768  90.8695 0000410 204.6846  82.1733  1.00271903 34472
BSAT-3A                 
1 32019U 07036B   23060.05739225 -.00000356  00000+0  00000+0 0  9998
2 32019   0.0959 252.7239 0002234  22.9760  13.3764  1.00271341 56999
WORLDVIEW-1 (WV-1)      
1 32060U 07041A   23060.25022748  .00013941  00000+0  56557-3 0  9992
2 32060  97.3837 181.1985 0007595 280.7252  79.3130 15.24702072859606
OPTUS D2                
1 32252U 07044A   23059.92237396 -.00000189  00000+0  00000+0 0  9996
2 32252   0.0659 283.5582 0003654  57.9622 300.9831  1.00271599 56366
INTELSAT 11 (IS-11)     
1 32253U 07044B   23060.18868847 -.00000275  00000+0  00000+0 0  9994
2 32253   0.4415  93.5563 0003121 248.2741 201.7872  1.00271076 56458
